start=new Date('2022-02-08T00:00:00.000Z').valueOf();
sats=[{"OBJECT_TYPE":"PAYLOAD","MEAN_MOTION_DDOT":"0.0000000000000","DECAY_DATE":null,"INCLINATION":"53.0537","ELEMENT_SET_NO":"999","GP_ID":"195479983","ECCENTRICITY":"0.00018480","NORAD_CAT_ID":"47568","EPOCH":"2022-02-07T08:06:01.908576","FILE":"3294379","MEAN_MOTION_DOT":"-0.00002291","MEAN_ELEMENT_THEORY":"SGP4","OBJECT_NAME":"STARLINK-1967","APOAPSIS":"548.553","SITE":"AFETR","TLE_LINE2":"2 47568  53.0537 256.5608 0001848  69.2000 290.9187 15.06380480 55736","ARG_OF_PERICENTER":"69.2000","MEAN_MOTION":"15.06380480","PERIOD":"95.593","LAUNCH_DATE":"2021-02-04","CENTER_NAME":"EARTH","CLASSIFICATION_TYPE":"U","REV_AT_EPOCH":"5573","SEMIMAJOR_AXIS":"6925.408","MEAN_ANOMALY":"290.9187","TLE_LINE1":"1 47568U 21009W   22038.33752209 -.00002291  00000-0 -13504-3 0  9990","BSTAR":"-0.00013504000000","COUNTRY_CODE":"US","OBJECT_ID":"2021-009W","TIME_SYSTEM":"UTC","REF_FRAME":"TEME","PERIAPSIS":"545.994","EPHEMERIS_TYPE":"0","RCS_SIZE":"LARGE","RA_OF_ASC_NODE":"256.5608"},{"REV_AT_EPOCH":"5708","CENTER_NAME":"EARTH","LAUNCH_DATE":"2021-02-04","CLASSIFICATION_TYPE":"U","SEMIMAJOR_AXIS":"6817.869","MEAN_ANOMALY":"341.8619","OBJECT_ID":"2021-009X","COUNTRY_CODE":"US","BSTAR":"0.00007471800000","TLE_LINE1":"1 47569U 21009X   22038.74397386  .00002840  00000-0  74718-4 0  9990","EPHEMERIS_TYPE":"0","PERIAPSIS":"437.567","RCS_SIZE":"LARGE","TIME_SYSTEM":"UTC","REF_FRAME":"TEME","RA_OF_ASC_NODE":"206.2654","MEAN_MOTION_DDOT":"0.0000000000000","DECAY_DATE":null,"INCLINATION":"53.0590","OBJECT_TYPE":"PAYLOAD","NORAD_CAT_ID":"47569","MEAN_MOTION_DOT":"0.00002840","FILE":"3294491","EPOCH":"2022-02-07T17:51:19.341504","ECCENTRICITY":"0.00031790","ELEMENT_SET_NO":"999","GP_ID":"195486778","OBJECT_NAME":"STARLINK-1968","TLE_LINE2":"2 47569  53.0590 206.2654 0003179  18.2499 341.8619 15.42161166 57088","SITE":"AFETR","APOAPSIS":"441.902","MEAN_ELEMENT_THEORY":"SGP4","ARG_OF_PERICENTER":"18.2499","PERIOD":"93.375","MEAN_MOTION":"15.42161166"},{"MEAN_ANOMALY":"286.7710","TLE_LINE1":"1 47570U 21009Y   22038.79456524 -.00000396  00000-0 -76896-5 0  9993","OBJECT_ID":"2021-009Y","COUNTRY_CODE":"US","BSTAR":"-0.00000768960000","LAUNCH_DATE":"2021-02-04","CENTER_NAME":"EARTH","CLASSIFICATION_TYPE":"U","REV_AT_EPOCH":"5697","SEMIMAJOR_AXIS":"6925.365","RA_OF_ASC_NODE":"214.5049","PERIAPSIS":"546.128","EPHEMERIS_TYPE":"0","RCS_SIZE":"LARGE","TIME_SYSTEM":"UTC","REF_FRAME":"TEME","NORAD_CAT_ID":"47570","EPOCH":"2022-02-07T19:04:10.436736","FILE":"3294556","MEAN_MOTION_DOT":"-0.00000396","GP_ID":"195488107","ELEMENT_SET_NO":"999","ECCENTRICITY":"0.00015910","DECAY_DATE":null,"MEAN_MOTION_DDOT":"0.0000000000000","INCLINATION":"53.0532","OBJECT_TYPE":"PAYLOAD","ARG_OF_PERICENTER":"73.3454","MEAN_MOTION":"15.06394530","PERIOD":"95.592","OBJECT_NAME":"STARLINK-1969","APOAPSIS":"548.332","SITE":"AFETR","TLE_LINE2":"2 47570  53.0532 214.5049 0001591  73.3454 286.7710 15.06394530 56974","MEAN_ELEMENT_THEORY":"SGP4"},{"SEMIMAJOR_AXIS":"6925.366","CLASSIFICATION_TYPE":"U","LAUNCH_DATE":"2021-02-04","CENTER_NAME":"EARTH","REV_AT_EPOCH":"5618","TLE_LINE1":"1 47571U 21009Z   22038.53931762 -.00001645  00000-0 -91535-4 0  9992","BSTAR":"-0.00009153500000","COUNTRY_CODE":"US","OBJECT_ID":"2021-009Z","MEAN_ANOMALY":"281.9574","REF_FRAME":"TEME","TIME_SYSTEM":"UTC","RCS_SIZE":"LARGE","PERIAPSIS":"546.056","EPHEMERIS_TYPE":"0","RA_OF_ASC_NODE":"225.6593","OBJECT_TYPE":"PAYLOAD","INCLINATION":"53.0529","DECAY_DATE":null,"MEAN_MOTION_DDOT":"0.0000000000000","ELEMENT_SET_NO":"999","GP_ID":"195479733","ECCENTRICITY":"0.00016960","FILE":"3294379","EPOCH":"2022-02-07T12:56:37.042368","MEAN_MOTION_DOT":"-0.00001645","NORAD_CAT_ID":"47571","MEAN_ELEMENT_THEORY":"SGP4","APOAPSIS":"548.405","TLE_LINE2":"2 47571  53.0529 225.6593 0001696  78.1605 281.9574 15.06394367 56181","SITE":"AFETR","OBJECT_NAME":"STARLINK-1970","MEAN_MOTION":"15.06394367","PERIOD":"95.592","ARG_OF_PERICENTER":"78.1605"},{"RA_OF_ASC_NODE":"225.7373","RCS_SIZE":"LARGE","EPHEMERIS_TYPE":"0","PERIAPSIS":"546.118","REF_FRAME":"TEME","TIME_SYSTEM":"UTC","COUNTRY_CODE":"US","BSTAR":"-0.00004938100000","OBJECT_ID":"2021-009AA","TLE_LINE1":"1 47572U 21009AA  22038.52089601 -.00001017  00000-0 -49381-4 0  9993","MEAN_ANOMALY":"290.7502","SEMIMAJOR_AXIS":"6925.386","REV_AT_EPOCH":"5618","LAUNCH_DATE":"2021-02-04","CLASSIFICATION_TYPE":"U","CENTER_NAME":"EARTH","PERIOD":"95.593","MEAN_MOTION":"15.06387655","ARG_OF_PERICENTER":"69.3662","SITE":"AFETR","TLE_LINE2":"2 47572  53.0563 225.7373 0001637  69.3662 290.7502 15.06387655 56188","APOAPSIS":"548.385","OBJECT_NAME":"STARLINK-1971","MEAN_ELEMENT_THEORY":"SGP4","MEAN_MOTION_DOT":"-0.00001017","EPOCH":"2022-02-07T12:30:05.415264","FILE":"3294379","NORAD_CAT_ID":"47572","ECCENTRICITY":"0.00016370","ELEMENT_SET_NO":"999","GP_ID":"195480483","INCLINATION":"53.0563","DECAY_DATE":null,"MEAN_MOTION_DDOT":"0.0000000000000","OBJECT_TYPE":"PAYLOAD"},{"CLASSIFICATION_TYPE":"U","LAUNCH_DATE":"2021-02-04","CENTER_NAME":"EARTH","REV_AT_EPOCH":"5617","SEMIMAJOR_AXIS":"6925.394","MEAN_ANOMALY":"292.6234","TLE_LINE1":"1 47573U 21009AB  22038.49878494 -.00001320  00000-0 -69769-4 0  9995","BSTAR":"-0.00006976900000","COUNTRY_CODE":"US","OBJECT_ID":"2021-009AB","PERIAPSIS":"545.940","EPHEMERIS_TYPE":"0","RCS_SIZE":"LARGE","TIME_SYSTEM":"UTC","REF_FRAME":"TEME","RA_OF_ASC_NODE":"225.8319","DECAY_DATE":null,"MEAN_MOTION_DDOT":"0.0000000000000","INCLINATION":"53.0547","OBJECT_TYPE":"PAYLOAD","NORAD_CAT_ID":"47573","EPOCH":"2022-02-07T11:58:15.018816","FILE":"3294379","MEAN_MOTION_DOT":"-0.00001320","GP_ID":"195480735","ELEMENT_SET_NO":"999","ECCENTRICITY":"0.00019040","OBJECT_NAME":"STARLINK-1975","APOAPSIS":"548.578","TLE_LINE2":"2 47573  53.0547 225.8319 0001904  67.4957 292.6234 15.06385203 56174","SITE":"AFETR","MEAN_ELEMENT_THEORY":"SGP4","ARG_OF_PERICENTER":"67.4957","MEAN_MOTION":"15.06385203","PERIOD":"95.593"},{"SEMIMAJOR_AXIS":"6925.381","REV_AT_EPOCH":"5572","LAUNCH_DATE":"2021-02-04","CENTER_NAME":"EARTH","CLASSIFICATION_TYPE":"U","BSTAR":"-0.00015878000000","COUNTRY_CODE":"US","OBJECT_ID":"2021-009AC","TLE_LINE1":"1 47574U 21009AC  22038.31540586 -.00002645  00000-0 -15878-3 0  9997","MEAN_ANOMALY":"292.6418","RCS_SIZE":"LARGE","EPHEMERIS_TYPE":"0","PERIAPSIS":"546.049","REF_FRAME":"TEME","TIME_SYSTEM":"UTC","RA_OF_ASC_NODE":"256.6593","INCLINATION":"53.0551","DECAY_DATE":null,"MEAN_MOTION_DDOT":"0.0000000000000","OBJECT_TYPE":"PAYLOAD","MEAN_MOTION_DOT":"-0.00002645","EPOCH":"2022-02-07T07:34:11.066304","FILE":"3294379","NORAD_CAT_ID":"47574","ECCENTRICITY":"0.00017280","ELEMENT_SET_NO":"999","GP_ID":"195480986","SITE":"AFETR","TLE_LINE2":"2 47574  53.0551 256.6593 0001728  67.4754 292.6418 15.06389354 55720","APOAPSIS":"548.443","OBJECT_NAME":"STARLINK-1976","MEAN_ELEMENT_THEORY":"SGP4","PERIOD":"95.593","MEAN_MOTION":"15.06389354","ARG_OF_PERICENTER":"67.4754"},{"OBJECT_TYPE":"PAYLOAD","INCLINATION":"53.0546","MEAN_MOTION_DDOT":"0.0000000000000","DECAY_DATE":null,"GP_ID":"195480233","ELEMENT_SET_NO":"999","ECCENTRICITY":"0.00015190","FILE":"3294379","EPOCH":"2022-02-07T13:40:25.045248","MEAN_MOTION_DOT":"0.00000383","NORAD_CAT_ID":"47575","MEAN_ELEMENT_THEORY":"SGP4","APOAPSIS":"548.319","SITE":"AFETR","TLE_LINE2":"2 47575  53.0546 255.5159 0001519  72.8134 287.3021 15.06382409 55760","OBJECT_NAME":"STARLINK-1977","MEAN_MOTION":"15.06382409","PERIOD":"95.593","ARG_OF_PERICENTER":"72.8134","SEMIMAJOR_AXIS":"6925.402","LAUNCH_DATE":"2021-02-04","CLASSIFICATION_TYPE":"U","CENTER_NAME":"EARTH","REV_AT_EPOCH":"5576","TLE_LINE1":"1 47575U 21009AD  22038.56973432  .00000383  00000-0  44614-4 0  9991","BSTAR":"0.00004461400000","COUNTRY_CODE":"US","OBJECT_ID":"2021-009AD","MEAN_ANOMALY":"287.3021","REF_FRAME":"TEME","TIME_SYSTEM":"UTC","RCS_SIZE":"LARGE","PERIAPSIS":"546.216","EPHEMERIS_TYPE":"0","RA_OF_ASC_NODE":"255.5159"},{"MEAN_ELEMENT_THEORY":"SGP4","APOAPSIS":"548.617","TLE_LINE2":"2 47576  53.0544 214.4666 0001996  70.2765 289.8439 15.06393110 56972","SITE":"AFETR","OBJECT_NAME":"STARLINK-1978","MEAN_MOTION":"15.06393110","PERIOD":"95.593","ARG_OF_PERICENTER":"70.2765","OBJECT_TYPE":"PAYLOAD","INCLINATION":"53.0544","DECAY_DATE":null,"MEAN_MOTION_DDOT":"0.0000000000000","GP_ID":"195488099","ELEMENT_SET_NO":"999","ECCENTRICITY":"0.00019960","EPOCH":"2022-02-07T19:14:47.542560","FILE":"3294556","MEAN_MOTION_DOT":"0.00001907","NORAD_CAT_ID":"47576","REF_FRAME":"TEME","TIME_SYSTEM":"UTC","RCS_SIZE":"LARGE","PERIAPSIS":"545.852","EPHEMERIS_TYPE":"0","RA_OF_ASC_NODE":"214.4666","SEMIMAJOR_AXIS":"6925.370","CENTER_NAME":"EARTH","LAUNCH_DATE":"2021-02-04","CLASSIFICATION_TYPE":"U","REV_AT_EPOCH":"5697","TLE_LINE1":"1 47576U 21009AE  22038.80193915  .00001907  00000-0  14691-3 0  9993","OBJECT_ID":"2021-009AE","COUNTRY_CODE":"US","BSTAR":"0.00014691000000","MEAN_ANOMALY":"289.8439"},{"RA_OF_ASC_NODE":"231.0855","TIME_SYSTEM":"UTC","REF_FRAME":"TEME","EPHEMERIS_TYPE":"0","PERIAPSIS":"546.217","RCS_SIZE":"LARGE","MEAN_ANOMALY":"287.7763","COUNTRY_CODE":"US","BSTAR":"-0.00000373830000","OBJECT_ID":"2021-009AF","TLE_LINE1":"1 47577U 21009AF  22038.44487290 -.00000337  00000-0 -37383-5 0  9999","REV_AT_EPOCH":"5610","LAUNCH_DATE":"2021-02-04","CLASSIFICATION_TYPE":"U","CENTER_NAME":"EARTH","SEMIMAJOR_AXIS":"6925.413","ARG_OF_PERICENTER":"72.3393","PERIOD":"95.593","MEAN_MOTION":"15.06379133","MEAN_ELEMENT_THEORY":"SGP4","OBJECT_NAME":"STARLINK-1979","TLE_LINE2":"2 47577  53.0528 231.0855 0001531  72.3393 287.7763 15.06379133 56106","SITE":"AFETR","APOAPSIS":"548.338","ECCENTRICITY":"0.00015310","GP_ID":"195481235","ELEMENT_SET_NO":"999","NORAD_CAT_ID":"47577","MEAN_MOTION_DOT":"-0.00000337","FILE":"3294379","EPOCH":"2022-02-07T10:40:37.018560","OBJECT_TYPE":"PAYLOAD","MEAN_MOTION_DDOT":"0.0000000000000","DECAY_DATE":null,"INCLINATION":"53.0528"}];
